0 IRIDIUM 33 DEB
1 33952U 97051BM  13283.53517362  .00005429  00000-0  16713-2 0  2985
2 33952 086.3585 120.2818 0017446 347.1013 041.1798 14.41272754244313
0 IRIDIUM 33 DEB
1 33952U 97051BM  13286.52635935  .00004641  00000-0  14273-2 0  3002
2 33952 086.3587 119.0045 0017247 337.2320 081.3192 14.41296350244742
0 IRIDIUM 33 DEB
1 33952U 97051BM  13287.56812933  .00006572  00000-0  20229-2 0  3016
2 33952 086.3580 118.5591 0017160 333.6196 086.9104 14.41306091244894
0 IRIDIUM 33 DEB
1 33952U 97051BM  13289.03914550  .00007282  00000-0  22410-2 0  3022
2 33952 086.3574 117.9304 0017015 328.5484 159.8540 14.41326240245101
0 IRIDIUM 33 DEB
1 33952U 97051BM  13290.55214669  .00005726  00000-0  17607-2 0  3039
2 33952 086.3573 117.2840 0016867 323.2130 090.8623 14.41342640245324
0 IRIDIUM 33 DEB
1 33952U 97051BM  13291.96102517  .00005617  00000-0  17267-2 0  3045
2 33952 086.3577 116.6821 0016779 318.3282 201.5753 14.41356873245525
0 IRIDIUM 33 DEB
1 33952U 97051BM  13293.00133116  .00005997  00000-0  18433-2 0  3059
2 33952 086.3581 116.2376 0016708 314.6630 199.8666 14.41368748245671
0 IRIDIUM 33 DEB
1 33952U 97051BM  13294.50904648  .00007600  00000-0  23366-2 0  3066
2 33952 086.3583 115.5932 0016599 309.2698 103.7606 14.41384001245897
0 IRIDIUM 33 DEB
1 33952U 97051BM  13295.98132128  .00007714  00000-0  23708-2 0  3072
2 33952 086.3588 114.9643 0016520 303.9027 183.9335 14.41402244246109
